[{"OBJECT_NAME":"STARLINK-2449","OBJECT_ID":"2021-027W","EPOCH":"2026-01-14T00:00:02.000160","MEAN_MOTION":15.24450569,"ECCENTRICITY":0.00016138,"INCLINATION":53.1296,"RA_OF_ASC_NODE":61.7001,"ARG_OF_PERICENTER":110.3081,"MEAN_ANOMALY":122.257,"EPHEMERIS_TYPE":0,"CLASSIFICATION_TYPE":"U","NORAD_CAT_ID":48112,"ELEMENT_SET_NO":999,"REV_AT_EPOCH":555,"BSTAR":0.004840446,"MEAN_MOTION_DOT":0.00122049,"MEAN_MOTION_DDOT":0},{"OBJECT_NAME":"STARLINK-2450","OBJECT_ID":"2021-027X","EPOCH":"2026-01-13T10:08:49.004160","MEAN_MOTION":15.06394838,"ECCENTRICITY":0.0001177,"INCLINATION":53.0559,"RA_OF_ASC_NODE":59.7215,"ARG_OF_PERICENTER":93.5869,"MEAN_ANOMALY":266.5255,"EPHEMERIS_TYPE":0,"CLASSIFICATION_TYPE":"U","NORAD_CAT_ID":48113,"ELEMENT_SET_NO":999,"REV_AT_EPOCH":26407,"BSTAR":-1.4537e-5,"MEAN_MOTION_DOT":-4.98e-6,"MEAN_MOTION_DDOT":0},{"OBJECT_NAME":"STARLINK-2452","OBJECT_ID":"2021-027Z","EPOCH":"2026-01-13T19:27:25.822656","MEAN_MOTION":15.0640011,"ECCENTRICITY":0.0001277,"INCLINATION":53.0561,"RA_OF_ASC_NODE":47.9873,"ARG_OF_PERICENTER":81.7679,"MEAN_ANOMALY":278.3455,"EPHEMERIS_TYPE":0,"CLASSIFICATION_TYPE":"U","NORAD_CAT_ID":48115,"ELEMENT_SET_NO":999,"REV_AT_EPOCH":26428,"BSTAR":0.00011169675,"MEAN_MOTION_DOT":1.383e-5,"MEAN_MOTION_DDOT":0},{"OBJECT_NAME":"STARLINK-2454","OBJECT_ID":"2021-027AA","EPOCH":"2026-01-13T10:03:29.236896","MEAN_MOTION":15.06401632,"ECCENTRICITY":0.0001287,"INCLINATION":53.0542,"RA_OF_ASC_NODE":59.7383,"ARG_OF_PERICENTER":88.7586,"MEAN_ANOMALY":271.3551,"EPHEMERIS_TYPE":0,"CLASSIFICATION_TYPE":"U","NORAD_CAT_ID":48116,"ELEMENT_SET_NO":999,"REV_AT_EPOCH":26408,"BSTAR":0.00012992,"MEAN_MOTION_DOT":1.654e-5,"MEAN_MOTION_DDOT":0},{"OBJECT_NAME":"STARLINK-2455","OBJECT_ID":"2021-027AB","EPOCH":"2026-01-13T18:55:33.381984","MEAN_MOTION":15.06391275,"ECCENTRICITY":0.00013076,"INCLINATION":53.0552,"RA_OF_ASC_NODE":38.0684,"ARG_OF_PERICENTER":90.377,"MEAN_ANOMALY":269.7369,"EPHEMERIS_TYPE":0,"CLASSIFICATION_TYPE":"U","NORAD_CAT_ID":48117,"ELEMENT_SET_NO":999,"REV_AT_EPOCH":26442,"BSTAR":5.5865295e-5,"MEAN_MOTION_DOT":5.51e-6,"MEAN_MOTION_DDOT":0},{"OBJECT_NAME":"STARLINK-2459","OBJECT_ID":"2021-027AD","EPOCH":"2026-01-13T19:06:10.157760","MEAN_MOTION":15.06396279,"ECCENTRICITY":0.00014333,"INCLINATION":53.0552,"RA_OF_ASC_NODE":38.0354,"ARG_OF_PERICENTER":91.9044,"MEAN_ANOMALY":268.2109,"EPHEMERIS_TYPE":0,"CLASSIFICATION_TYPE":"U","NORAD_CAT_ID":48119,"ELEMENT_SET_NO":999,"REV_AT_EPOCH":26441,"BSTAR":8.3836493e-5,"MEAN_MOTION_DOT":9.67e-6,"MEAN_MOTION_DDOT":0},{"OBJECT_NAME":"STARLINK-2460","OBJECT_ID":"2021-027AE","EPOCH":"2026-01-13T12:53:20.485824","MEAN_MOTION":15.06393719,"ECCENTRICITY":0.00014631,"INCLINATION":53.0553,"RA_OF_ASC_NODE":59.2095,"ARG_OF_PERICENTER":88.0832,"MEAN_ANOMALY":272.0325,"EPHEMERIS_TYPE":0,"CLASSIFICATION_TYPE":"U","NORAD_CAT_ID":48120,"ELEMENT_SET_NO":999,"REV_AT_EPOCH":26411,"BSTAR":7.6089216e-5,"MEAN_MOTION_DOT":8.52e-6,"MEAN_MOTION_DDOT":0},{"OBJECT_NAME":"STARLINK-2462","OBJECT_ID":"2021-027AF","EPOCH":"2026-01-13T05:50:02.398848","MEAN_MOTION":15.06401137,"ECCENTRICITY":0.000141,"INCLINATION":53.0555,"RA_OF_ASC_NODE":50.5274,"ARG_OF_PERICENTER":89.7763,"MEAN_ANOMALY":270.3387,"EPHEMERIS_TYPE":0,"CLASSIFICATION_TYPE":"U","NORAD_CAT_ID":48121,"ELEMENT_SET_NO":999,"REV_AT_EPOCH":26419,"BSTAR":0.00016759,"MEAN_MOTION_DOT":2.216e-5,"MEAN_MOTION_DDOT":0},{"OBJECT_NAME":"STARLINK-2464","OBJECT_ID":"2021-027AH","EPOCH":"2026-01-13T20:21:51.365088","MEAN_MOTION":15.06404331,"ECCENTRICITY":0.00013125,"INCLINATION":53.055,"RA_OF_ASC_NODE":37.8097,"ARG_OF_PERICENTER":97.1885,"MEAN_ANOMALY":262.9253,"EPHEMERIS_TYPE":0,"CLASSIFICATION_TYPE":"U","NORAD_CAT_ID":48123,"ELEMENT_SET_NO":999,"REV_AT_EPOCH":26443,"BSTAR":0.0003824746,"MEAN_MOTION_DOT":5.421e-5,"MEAN_MOTION_DDOT":0},{"OBJECT_NAME":"STARLINK-2465","OBJECT_ID":"2021-027AJ","EPOCH":"2026-01-13T09:11:44.887488","MEAN_MOTION":15.06394282,"ECCENTRICITY":0.000149,"INCLINATION":53.056,"RA_OF_ASC_NODE":49.8996,"ARG_OF_PERICENTER":94.4134,"MEAN_ANOMALY":265.7025,"EPHEMERIS_TYPE":0,"CLASSIFICATION_TYPE":"U","NORAD_CAT_ID":48124,"ELEMENT_SET_NO":999,"REV_AT_EPOCH":26421,"BSTAR":7.8972e-5,"MEAN_MOTION_DOT":8.95e-6,"MEAN_MOTION_DDOT":0},{"OBJECT_NAME":"STARLINK-2466","OBJECT_ID":"2021-027AK","EPOCH":"2026-01-13T12:42:45.675648","MEAN_MOTION":15.0640381,"ECCENTRICITY":0.00014933,"INCLINATION":53.0544,"RA_OF_ASC_NODE":59.4821,"ARG_OF_PERICENTER":89.8785,"MEAN_ANOMALY":270.2375,"EPHEMERIS_TYPE":0,"CLASSIFICATION_TYPE":"U","NORAD_CAT_ID":48125,"ELEMENT_SET_NO":999,"REV_AT_EPOCH":26410,"BSTAR":9.0957376e-5,"MEAN_MOTION_DOT":1.074e-5,"MEAN_MOTION_DDOT":0},{"OBJECT_NAME":"STARLINK-2467","OBJECT_ID":"2021-027AL","EPOCH":"2026-01-13T05:14:12.599232","MEAN_MOTION":15.06397878,"ECCENTRICITY":0.0001293,"INCLINATION":53.056,"RA_OF_ASC_NODE":40.6389,"ARG_OF_PERICENTER":95.4197,"MEAN_ANOMALY":264.6939,"EPHEMERIS_TYPE":0,"CLASSIFICATION_TYPE":"U","NORAD_CAT_ID":48126,"ELEMENT_SET_NO":999,"REV_AT_EPOCH":26434,"BSTAR":6.8186e-5,"MEAN_MOTION_DOT":7.34e-6,"MEAN_MOTION_DDOT":0},{"OBJECT_NAME":"STARLINK-2468","OBJECT_ID":"2021-027AM","EPOCH":"2026-01-13T19:20:48.441408","MEAN_MOTION":15.06402618,"ECCENTRICITY":0.0001326,"INCLINATION":53.0557,"RA_OF_ASC_NODE":58.0011,"ARG_OF_PERICENTER":88.3737,"MEAN_ANOMALY":271.7404,"EPHEMERIS_TYPE":0,"CLASSIFICATION_TYPE":"U","NORAD_CAT_ID":48127,"ELEMENT_SET_NO":999,"REV_AT_EPOCH":26414,"BSTAR":-1.5616365e-5,"MEAN_MOTION_DOT":-5.14e-6,"MEAN_MOTION_DDOT":0},{"OBJECT_NAME":"STARLINK-2469","OBJECT_ID":"2021-027AN","EPOCH":"2026-01-13T22:04:00.802272","MEAN_MOTION":15.06392939,"ECCENTRICITY":0.00020913,"INCLINATION":53.0554,"RA_OF_ASC_NODE":347.5776,"ARG_OF_PERICENTER":87.7299,"MEAN_ANOMALY":272.3929,"EPHEMERIS_TYPE":0,"CLASSIFICATION_TYPE":"U","NORAD_CAT_ID":48128,"ELEMENT_SET_NO":999,"REV_AT_EPOCH":26513,"BSTAR":-0.00015625024,"MEAN_MOTION_DOT":-2.608e-5,"MEAN_MOTION_DDOT":0},{"OBJECT_NAME":"STARLINK-2471","OBJECT_ID":"2021-027AP","EPOCH":"2026-01-13T12:48:02.187360","MEAN_MOTION":15.06399527,"ECCENTRICITY":0.00013125,"INCLINATION":53.0559,"RA_OF_ASC_NODE":59.2253,"ARG_OF_PERICENTER":95.7445,"MEAN_ANOMALY":264.3694,"EPHEMERIS_TYPE":0,"CLASSIFICATION_TYPE":"U","NORAD_CAT_ID":48129,"ELEMENT_SET_NO":999,"REV_AT_EPOCH":26410,"BSTAR":2.661074e-5,"MEAN_MOTION_DOT":1.15e-6,"MEAN_MOTION_DDOT":0},{"OBJECT_NAME":"STARLINK-2472","OBJECT_ID":"2021-027AQ","EPOCH":"2026-01-14T00:00:02.000160","MEAN_MOTION":15.24637012,"ECCENTRICITY":0.00024437,"INCLINATION":53.131,"RA_OF_ASC_NODE":62.0803,"ARG_OF_PERICENTER":71.8392,"MEAN_ANOMALY":43.0141,"EPHEMERIS_TYPE":0,"CLASSIFICATION_TYPE":"U","NORAD_CAT_ID":48130,"ELEMENT_SET_NO":999,"REV_AT_EPOCH":580,"BSTAR":0.0048621519,"MEAN_MOTION_DOT":0.00123307,"MEAN_MOTION_DDOT":0}]
