STARLINK-2449           
1 48112U 21027W   26014.00002315  .00122049  00000+0  48404-2 0  9991
2 48112  53.1296  61.7001 0001613 110.3081 122.2570 15.24450569  5559
STARLINK-2450           
1 48113U 21027X   26013.42278940 -.00000498  00000+0 -14537-4 0  9993
2 48113  53.0559  59.7215 0001177  93.5869 266.5255 15.06394838264078
STARLINK-2452           
1 48115U 21027Z   26013.81071554  .00001383  00000+0  11170-3 0  9991
2 48115  53.0561  47.9873 0001277  81.7679 278.3455 15.06400110264288
STARLINK-2454           
1 48116U 21027AA  26013.41908839  .00001654  00000+0  12992-3 0  9997
2 48116  53.0542  59.7383 0001287  88.7586 271.3551 15.06401632264088
STARLINK-2455           
1 48117U 21027AB  26013.78858081  .00000551  00000+0  55865-4 0  9993
2 48117  53.0552  38.0684 0001307  90.3770 269.7369 15.06391275264428
STARLINK-2459           
1 48119U 21027AD  26013.79595090  .00000967  00000+0  83836-4 0  9994
2 48119  53.0552  38.0354 0001433  91.9044 268.2109 15.06396279264419
STARLINK-2460           
1 48120U 21027AE  26013.53704266  .00000852  00000+0  76089-4 0  9990
2 48120  53.0553  59.2095 0001463  88.0832 272.0325 15.06393719264110
STARLINK-2462           
1 48121U 21027AF  26013.24308332  .00002216  00000+0  16759-3 0  9996
2 48121  53.0555  50.5274 0001410  89.7763 270.3387 15.06401137264190
STARLINK-2464           
1 48123U 21027AH  26013.84851117  .00005421  00000+0  38247-3 0  9995
2 48123  53.0550  37.8097 0001312  97.1885 262.9253 15.06404331264432
STARLINK-2465           
1 48124U 21027AJ  26013.38315842  .00000895  00000+0  78972-4 0  9995
2 48124  53.0560  49.8996 0001490  94.4134 265.7025 15.06394282264216
STARLINK-2466           
1 48125U 21027AK  26013.52969532  .00001074  00000+0  90957-4 0  9990
2 48125  53.0544  59.4821 0001493  89.8785 270.2375 15.06403810264101
STARLINK-2467           
1 48126U 21027AL  26013.21820138  .00000734  00000+0  68186-4 0  9996
2 48126  53.0560  40.6389 0001293  95.4197 264.6939 15.06397878264344
STARLINK-2468           
1 48127U 21027AM  26013.80611622 -.00000514  00000+0 -15616-4 0  9996
2 48127  53.0557  58.0011 0001326  88.3737 271.7404 15.06402618264147
STARLINK-2469           
1 48128U 21027AN  26013.91945373 -.00002608  00000+0 -15625-3 0  9997
2 48128  53.0554 347.5776 0002091  87.7299 272.3929 15.06392939265138
STARLINK-2471           
1 48129U 21027AP  26013.53335865  .00000115  00000+0  26611-4 0  9992
2 48129  53.0559  59.2253 0001312  95.7445 264.3694 15.06399527264104
STARLINK-2472           
1 48130U 21027AQ  26014.00002315  .00123307  00000+0  48622-2 0  9991
2 48130  53.1310  62.0803 0002443  71.8392  43.0141 15.24637012  5800
